O3B FM17                
1 44114U 19020C   26062.77692844 -.00000028  00000+0  00000+0 0  9998
2 44114   0.0395 339.7989 0002691 357.5009  22.6814  5.00115414126247
O3B FM18                
1 44115U 19020D   26062.52332968 -.00000028  00000+0  00000+0 0  9990
2 44115   0.0519   0.0145 0002751 341.7220  18.2467  5.00115242126362
SES-17                  
1 49332U 21095A   26062.57320731 -.00000287  00000+0  00000+0 0  9998
2 49332   0.0228  65.8789 0000726 300.0742 294.6288  1.00281372 16795
SES-22                  
1 52933U 22071A   26062.70156134  .00000000  00000+0  00000+0 0  9995
2 52933   0.0191 170.6204 0001019 179.6381 284.8010  1.00273580  6466
SES-20                  
1 53960U 22123A   26062.63734101 -.00000115  00000+0  00000+0 0  9990
2 53960   0.0155 106.5897 0001397 318.5401 222.5820  1.00270643 12472
SES-21                  
1 53961U 22123B   26062.63188096  .00000056  00000+0  00000+0 0  9990
2 53961   0.0278  63.7289 0000738 274.6523 279.4804  1.00266032  6151
O3B MPOWER F1           
1 54755U 22174A   26058.53300325 -.00000026  00000+0  00000+0 0  9991
2 54755   0.0641 351.4493 0005158   3.4086 238.9684  5.00103025 59873
O3B MPOWER F2           
1 54756U 22174B   26048.35866194 -.00000015  00000+0  00000+0 0  9990
2 54756   0.0642 348.2682 0001560 220.5550 151.1634  5.00731386 59441
SES-18                  
1 55970U 23038A   26062.56610060 -.00000115  00000+0  00000+0 0  9998
2 55970   0.0619 273.2992 0002492  33.4174 315.2907  1.00272207 11041
SES-19                  
1 55971U 23038B   26062.70242802  .00000074  00000+0  00000+0 0  9993
2 55971   0.0549 286.7591 0001741  50.2099 302.4492  1.00272119 11024
O3B MPOWER F4           
1 56367U 23059A   26048.24074746 -.00000015  00000+0  00000+0 0  9995
2 56367   0.0593   7.9241 0006460 334.3658  17.6828  5.00119607 52601
O3B MPOWER F5           
1 58346U 23175A   26062.56627971 -.00000028  00000+0  00000+0 0  9992
2 58346   0.0397   2.4718 0004138 344.6428  12.8678  5.00115723 44145
ASTRA 1P (SES-24)       
1 60086U 24115A   26062.36572473  .00000105  00000+0  00000+0 0  9990
2 60086   0.0596 334.2929 0005283 348.1737 349.5092  1.00272526  6132
O3B MPOWER F7           
1 62362U 24244A   26059.53491027 -.00000028  00000+0  00000+0 0  9997
2 62362   0.0693   5.4961 0006142 333.0934  21.3774  5.00115153 21099
O3B MPOWER F8           
1 62363U 24244B   26062.50025772 -.00000028  00000+0  00000+0 0  9999
2 62363   0.0525 316.7584 0006648  17.7734  25.4284  5.00115755 15584
